{
  "type": "FeatureCollection",
  "features": [
    {
      "type": "Feature",
      "properties": {
        "norad_id": 43706,
        "name": "BEIDOU-3 M17 (C36)",
        "group": "beidou",
        "lat": 54.00512399352182,
        "lon": -75.99664196122463,
        "alt_km": 21535.97603524723,
        "timestamp": "2025-12-22T18:58:53.700097+00:00",
        "meta_object_name": "BEIDOU-3 M17 (C36)",
        "meta_object_id": "2018-093A",
        "meta_epoch": "2025-12-20T12:04:20.840736",
        "meta_mean_motion": 1.86228485,
        "meta_eccentricity": 0.00060883,
        "meta_inclination": 54.1751,
        "meta_ra_of_asc_node": 188.3582,
        "meta_arg_of_pericenter": 307.8758,
        "meta_mean_anomaly": 51.559,
        "meta_ephemeris_type": 0,
        "meta_classification_type": "U",
        "meta_norad_cat_id": 43706,
        "meta_element_set_no": 999,
        "meta_rev_at_epoch": 4820,
        "meta_bstar": 0,
        "meta_mean_motion_dot": 9.7e-07,
        "meta_mean_motion_ddot": 0,
        "tle_line1": "1 43706U 18093A   25354.50301899  .00000097  00000+0  00000+0 0  9999",
        "tle_line2": "2 43706  54.1751 188.3582 0006088 307.8758  51.5590  1.86228485 48203"
      },
      "geometry": {
        "type": "Point",
        "coordinates": [
          -75.99664196122463,
          54.00512399352182
        ]
      }
    },
    {
      "type": "Feature",
      "properties": {
        "norad_id": 43707,
        "name": "BEIDOU-3 M18 (C37)",
        "group": "beidou",
        "lat": -4.982469150751823,
        "lon": 11.88945629964165,
        "alt_km": 21546.31141059553,
        "timestamp": "2025-12-22T18:58:53.700108+00:00",
        "meta_object_name": "BEIDOU-3 M18 (C37)",
        "meta_object_id": "2018-093B",
        "meta_epoch": "2025-12-20T21:39:28.587744",
        "meta_mean_motion": 1.86226757,
        "meta_eccentricity": 0.00062168,
        "meta_inclination": 54.1741,
        "meta_ra_of_asc_node": 188.3365,
        "meta_arg_of_pericenter": 353.7926,
        "meta_mean_anomaly": 6.2524,
        "meta_ephemeris_type": 0,
        "meta_classification_type": "U",
        "meta_norad_cat_id": 43707,
        "meta_element_set_no": 999,
        "meta_rev_at_epoch": 4821,
        "meta_bstar": 0,
        "meta_mean_motion_dot": 9.5e-07,
        "meta_mean_motion_ddot": 0,
        "tle_line1": "1 43707U 18093B   25354.90241421  .00000095  00000+0  00000+0 0  9996",
        "tle_line2": "2 43707  54.1741 188.3365 0006216 353.7926   6.2524  1.86226757 48217"
      },
      "geometry": {
        "type": "Point",
        "coordinates": [
          11.88945629964165,
          -4.982469150751823
        ]
      }
    },
    {
      "type": "Feature",
      "properties": {
        "norad_id": 44231,
        "name": "BEIDOU-2 G8 (C01)",
        "group": "beidou",
        "lat": 1.694789135920267,
        "lon": 160.78024123222704,
        "alt_km": 35818.967343019045,
        "timestamp": "2025-12-22T18:58:53.700120+00:00",
        "meta_object_name": "BEIDOU-2 G8 (C01)",
        "meta_object_id": "2019-027A",
        "meta_epoch": "2025-12-19T12:14:23.449632",
        "meta_mean_motion": 1.00276563,
        "meta_eccentricity": 0.0008196,
        "meta_inclination": 1.6785,
        "meta_ra_of_asc_node": 74.7229,
        "meta_arg_of_pericenter": 258.5641,
        "meta_mean_anomaly": 83.1013,
        "meta_ephemeris_type": 0,
        "meta_classification_type": "U",
        "meta_norad_cat_id": 44231,
        "meta_element_set_no": 999,
        "meta_rev_at_epoch": 2427,
        "meta_bstar": 0,
        "meta_mean_motion_dot": -2.24e-06,
        "meta_mean_motion_ddot": 0,
        "tle_line1": "1 44231U 19027A   25353.50999363 -.00000224  00000+0  00000+0 0  9992",
        "tle_line2": "2 44231   1.6785  74.7229 0008196 258.5641  83.1013  1.00276563 24270"
      },
      "geometry": {
        "type": "Point",
        "coordinates": [
          160.78024123222704,
          1.694789135920267
        ]
      }
    },
    {
      "type": "Feature",
      "properties": {
        "norad_id": 44337,
        "name": "BEIDOU-3 IGSO-2 (C39)",
        "group": "beidou",
        "lat": -19.793464334149213,
        "lon": 145.9001782075671,
        "alt_km": 35899.01427165562,
        "timestamp": "2025-12-22T18:58:53.700132+00:00",
        "meta_object_name": "BEIDOU-3 IGSO-2 (C39)",
        "meta_object_id": "2019-035A",
        "meta_epoch": "2025-12-21T20:57:21.557952",
        "meta_mean_motion": 1.00268613,
        "meta_eccentricity": 0.00376698,
        "meta_inclination": 55.2286,
        "meta_ra_of_asc_node": 160.4211,
        "meta_arg_of_pericenter": 202.2744,
        "meta_mean_anomaly": 161.7127,
        "meta_ephemeris_type": 0,
        "meta_classification_type": "U",
        "meta_norad_cat_id": 44337,
        "meta_element_set_no": 999,
        "meta_rev_at_epoch": 2389,
        "meta_bstar": 0,
        "meta_mean_motion_dot": -7.4e-07,
        "meta_mean_motion_ddot": 0,
        "tle_line1": "1 44337U 19035A   25355.87316618 -.00000074  00000+0  00000+0 0  9999",
        "tle_line2": "2 44337  55.2286 160.4211 0037669 202.2744 161.7127  1.00268613 23892"
      },
      "geometry": {
        "type": "Point",
        "coordinates": [
          145.9001782075671,
          -19.793464334149213
        ]
      }
    },
    {
      "type": "Feature",
      "properties": {
        "norad_id": 44542,
        "name": "BEIDOU-3 M24 (C46)",
        "group": "beidou",
        "lat": 32.38806672981566,
        "lon": -18.364402021568264,
        "alt_km": 21534.647587229258,
        "timestamp": "2025-12-22T18:58:53.700143+00:00",
        "meta_object_name": "BEIDOU-3 M24 (C46)",
        "meta_object_id": "2019-061A",
        "meta_epoch": "2025-12-20T23:21:37.865088",
        "meta_mean_motion": 1.86229471,
        "meta_eccentricity": 0.0009592,
        "meta_inclination": 54.4004,
        "meta_ra_of_asc_node": 188.7381,
        "meta_arg_of_pericenter": 25.7188,
        "meta_mean_anomaly": 334.3821,
        "meta_ephemeris_type": 0,
        "meta_classification_type": "U",
        "meta_norad_cat_id": 44542,
        "meta_element_set_no": 999,
        "meta_rev_at_epoch": 4247,
        "meta_bstar": 0,
        "meta_mean_motion_dot": 9.6e-07,
        "meta_mean_motion_ddot": 0,
        "tle_line1": "1 44542U 19061A   25354.97335492  .00000096  00000+0  00000+0 0  9990",
        "tle_line2": "2 44542  54.4004 188.7381 0009592  25.7188 334.3821  1.86229471 42471"
      },
      "geometry": {
        "type": "Point",
        "coordinates": [
          -18.364402021568264,
          32.38806672981566
        ]
      }
    },
    {
      "type": "Feature",
      "properties": {
        "norad_id": 44543,
        "name": "BEIDOU-3 M23 (C45)",
        "group": "beidou",
        "lat": 39.411331830778764,
        "lon": -135.26030299847076,
        "alt_km": 21508.19659320963,
        "timestamp": "2025-12-22T18:58:53.700155+00:00",
        "meta_object_name": "BEIDOU-3 M23 (C45)",
        "meta_object_id": "2019-061B",
        "meta_epoch": "2025-12-22T04:16:38.631360",
        "meta_mean_motion": 1.86227761,
        "meta_eccentricity": 0.00060882,
        "meta_inclination": 54.3995,
        "meta_ra_of_asc_node": 188.6659,
        "meta_arg_of_pericenter": 26.1092,
        "meta_mean_anomaly": 334.4978,
        "meta_ephemeris_type": 0,
        "meta_classification_type": "U",
        "meta_norad_cat_id": 44543,
        "meta_element_set_no": 999,
        "meta_rev_at_epoch": 4250,
        "meta_bstar": 0,
        "meta_mean_motion_dot": 9.4e-07,
        "meta_mean_motion_ddot": 0,
        "tle_line1": "1 44543U 19061B   25356.17822490  .00000094  00000+0  00000+0 0  9992",
        "tle_line2": "2 44543  54.3995 188.6659 0006088  26.1092 334.4978  1.86227761 42501"
      },
      "geometry": {
        "type": "Point",
        "coordinates": [
          -135.26030299847076,
          39.411331830778764
        ]
      }
    },
    {
      "type": "Feature",
      "properties": {
        "norad_id": 44793,
        "name": "BEIDOU-3 M22 (C44)",
        "group": "beidou",
        "lat": -47.67923744248859,
        "lon": 178.63094938184273,
        "alt_km": 21545.876999210184,
        "timestamp": "2025-12-22T18:58:53.700166+00:00",
        "meta_object_name": "BEIDOU-3 M22 (C44)",
        "meta_object_id": "2019-078A",
        "meta_epoch": "2025-12-21T21:17:38.113152",
        "meta_mean_motion": 1.86232212,
        "meta_eccentricity": 0.0006079,
        "meta_inclination": 54.0999,
        "meta_ra_of_asc_node": 306.0653,
        "meta_arg_of_pericenter": 23.9772,
        "meta_mean_anomaly": 336.0508,
        "meta_ephemeris_type": 0,
        "meta_classification_type": "U",
        "meta_norad_cat_id": 44793,
        "meta_element_set_no": 999,
        "meta_rev_at_epoch": 4134,
        "meta_bstar": 0,
        "meta_mean_motion_dot": -5.9e-07,
        "meta_mean_motion_ddot": 0,
        "tle_line1": "1 44793U 19078A   25355.88724668 -.00000059  00000+0  00000+0 0  9994",
        "tle_line2": "2 44793  54.0999 306.0653 0006079  23.9772 336.0508  1.86232212 41344"
      },
      "geometry": {
        "type": "Point",
        "coordinates": [
          178.63094938184273,
          -47.67923744248859
        ]
      }
    }
  ]
}